[{"OBJECT_NAME":"STARLINK-4358","OBJECT_ID":"2022-084AN","EPOCH":"2026-03-09T16:49:51.672000","MEAN_MOTION":15.05643906,"ECCENTRICITY":7.825e-5,"INCLINATION":97.6033,"RA_OF_ASC_NODE":131.1835,"ARG_OF_PERICENTER":112.5717,"MEAN_ANOMALY":247.5593,"EPHEMERIS_TYPE":0,"CLASSIFICATION_TYPE":"U","NORAD_CAT_ID":53225,"ELEMENT_SET_NO":999,"REV_AT_EPOCH":19938,"BSTAR":9.4536211e-5,"MEAN_MOTION_DOT":1.303e-5,"MEAN_MOTION_DDOT":0},{"OBJECT_NAME":"COSMOS 2251 DEB","OBJECT_ID":"1993-036GR","EPOCH":"2026-03-09T03:51:30.155616","MEAN_MOTION":15.03624382,"ECCENTRICITY":0.001162,"INCLINATION":74.0519,"RA_OF_ASC_NODE":328.1155,"ARG_OF_PERICENTER":228.8449,"MEAN_ANOMALY":281.5146,"EPHEMERIS_TYPE":0,"CLASSIFICATION_TYPE":"U","NORAD_CAT_ID":34006,"ELEMENT_SET_NO":999,"REV_AT_EPOCH":89963,"BSTAR":0.0037151817,"MEAN_MOTION_DOT":0.00051242,"MEAN_MOTION_DDOT":0}]
